NAYIF-1 (EO-88)         
1 42017U 17008BX  20082.29317906  .00001661  00000-0  66942-4 0  9994
2 42017  97.3685 151.1035 0004524 268.9669  91.1051 15.26241898172251
MAX VALIER SAT          
1 42778U 17036P   20082.45818611  .00000982  00000-0  45364-4 0  9996
2 42778  97.3163 138.4555 0011281 335.8840  24.1867 15.22460693152491
RADFXSAT (FOX-1B)       
1 43017U 17073E   20081.70252138  .00000876  00000-0  73808-4 0  9993
2 43017  97.7260 357.3122 0256801 336.5803  22.3876 14.78848156126190
FOX-1D (AO-92)          
1 43137U 18004AC  20081.17534890  .00001081  00000-0  47622-4 0  9994
2 43137  97.4536 152.9091 0009464  16.4632 343.6911 15.23948174121595
ES'HAIL 2               
1 43700U 18090A   20081.77757641  .00000126  00000-0  00000+0 0  9995
2 43700   0.0122 139.9838 0002375 258.4459  87.0227  1.00274494  5075
FOX-1CLIFF (AO-95)      
1 43770U 18099N   20082.42899867  .00000393  00000-0  41198-4 0  9995
2 43770  97.7133 155.2985 0015953 124.5570 235.7158 14.94933416 70917
ITASAT 1                
1 43786U 18099AE  20082.51278778 -.00000159  00000-0 -92174-5 0  9997
2 43786  97.7147 155.7382 0016535 118.8312 241.4571 14.95279543 70943
JY1SAT (JO-97)          
1 43803U 18099AX  20082.33653301  .00000538  00000-0  53756-4 0  9997
2 43803  97.7104 155.4051 0016585 120.2286 240.0579 14.95442208 70918
PSAT2 (NO-104)          
1 44354U 19036R   20082.12447787  .00014139  00000-0  21071-3 0  9993
2 44354  28.5279 233.5052 0371737  99.3422 264.9388 15.01674188 40669
BRICSAT2 (NO-103)       
1 44355U 19036S   20081.47886240  .00028129  00000-0  40942-3 0  9994
2 44355  28.5275 233.1445 0356799  99.9274 264.1775 15.05412483 40619
JAISAT-1                
1 44419U 19038F   20081.44588549  .00001074  00000-0  64864-4 0  9995
2 44419  97.5285  44.1374 0023372  75.0860 285.2956 15.12628125 39299
DUCHIFAT-3              
1 44854U 19089C   20082.50255522  .00000405  00000-0  39276-4 0  9990
2 44854  36.9670 252.1907 0007333  67.4403 292.7114 14.98999739 15240
HUSKYSAT-1              
1 45119U 19071J   20081.67690990  .00001765  00000-0  65619-4 0  9995
2 45119  51.6429  67.3704 0012951  96.9003 263.3453 15.33245959  7651
